NORAD_CAT_ID,OBJECT_NAME,OBJECT_TYPE,EPOCH,MEAN_MOTION,ECCENTRICITY,INCLINATION,RA_OF_ASC_NODE,ARG_OF_PERICENTER,MEAN_ANOMALY,BSTAR,MEAN_MOTION_DOT,MEAN_MOTION_DDOT,TLE_LINE0,TLE_LINE1,TLE_LINE2,SEMIMAJOR_AXIS,PERIOD,APOGEE,PERIGEE,DECAYED
56811.0,STARLINK-6063,PAYLOAD,2024-02-18 06:00:00,15.18709068,0.0003198,70.0003,36.8722,267.9721,330.5493,-0.047065,-0.00908061,0.0,0 STARLINK-6063,1 56811U 23078AW  24049.25001157 -.00908061  00000-0 -47065-1 0  9990,2 56811  70.0003  36.8722 0003198 267.9721 330.5493 15.18709068 41519,6887.878,94.817,511.946,507.54,0.0
56811.0,STARLINK-6063,PAYLOAD,2024-02-18 14:00:01,15.18091903,0.0003165,70.0,36.0053,267.4184,352.6308,-0.051497,-0.00970848,0.0,0 STARLINK-6063,1 56811U 23078AW  24049.58334491 -.00970848  00000-0 -51497-1 0  9992,2 56811  70.0000  36.0053 0003165 267.4184 352.6308 15.18091903  5980,6889.745,94.856,513.79,509.429,0.0
56811.0,STARLINK-6063,PAYLOAD,2024-02-18 22:00:00,15.17402586,0.0003244,70.0002,35.1392,262.3639,18.4458,-0.04784,-0.00890184,0.0,0 STARLINK-6063,1 56811U 23078AW  24049.91667824 -.00890184  00000-0 -47840-1 0  9999,2 56811  70.0002  35.1392 0003244 262.3639  18.4458 15.17402586  6037,6891.831,94.899,515.932,511.46,0.0
56811.0,STARLINK-6063,PAYLOAD,2024-02-19 06:00:00,15.16751983,0.0003282,70.0002,34.274,268.283,32.5061,-0.049698,-0.00906412,0.0,0 STARLINK-6063,1 56811U 23078AW  24050.25001157 -.00906412  00000-0 -49698-1 0  9994,2 56811  70.0002  34.2740 0003282 268.2830  32.5061 15.16751983 41666,6893.802,94.94,517.929,513.404,0.0
56811.0,STARLINK-6063,PAYLOAD,2024-02-19 14:00:01,15.16132442,0.0003264,69.9999,33.4096,267.8614,52.1103,-0.054312,-0.00968104,0.0,0 STARLINK-6063,1 56811U 23078AW  24050.58334491 -.00968104  00000-0 -54312-1 0  9995,2 56811  69.9999  33.4096 0003264 267.8614  52.1103 15.16132442  5992,6895.68,94.979,519.795,515.294,0.0
56811.0,STARLINK-6063,PAYLOAD,2024-02-19 22:00:00,15.15448017,0.0003302,70.0001,32.5462,263.4302,74.9528,-0.050753,-0.00892838,0.0,0 STARLINK-6063,1 56811U 23078AW  24050.91667824 -.00892838  00000-0 -50753-1 0  9996,2 56811  70.0001  32.5462 0003302 263.4302  74.9528 15.15448017 41760,6897.756,95.021,521.898,517.343,0.0
56811.0,STARLINK-6063,PAYLOAD,2024-02-20 14:00:01,15.14172895,0.0003264,69.9999,30.8217,269.003,103.8506,-0.057196,-0.00964568,0.0,0 STARLINK-6063,1 56811U 23078AW  24051.58334491 -.00964568  00000-0 -57196-1 0  9999,2 56811  69.9999  30.8217 0003264 269.0030 103.8506 15.14172895 41865,6901.628,95.101,525.745,521.24,0.0
56811.0,STARLINK-6063,PAYLOAD,2024-02-21 00:00:00,15.13356975,0.0003197,70.0003,29.7458,265.7154,217.086,-0.057088,-0.00942588,0.0,0 STARLINK-6063,1 56811U 23078AW  24052.00001157 -.00942588  00000-0 -57088-1 0  9995,2 56811  70.0003  29.7458 0003197 265.7154 217.0860 15.13356975  5923,6904.108,95.153,528.18,523.766,0.0
56811.0,STARLINK-6063,PAYLOAD,2024-02-21 06:00:00,15.12839305,0.0003288,70.0001,29.1009,270.9619,133.2408,-0.055571,-0.00907041,0.0,0 STARLINK-6063,1 56811U 23078AW  24052.25001157 -.00907041  00000-0 -55571-1 0  9992,2 56811  70.0001  29.1009 0003288 270.9619 133.2408 15.12839305 41965,6905.683,95.185,529.819,525.277,0.0
56811.0,STARLINK-6063,PAYLOAD,2024-02-21 14:00:01,15.12213385,0.0003214,69.9999,28.2416,269.509,149.1855,-0.060158,-0.00960459,0.0,0 STARLINK-6063,1 56811U 23078AW  24052.58334491 -.00960459  00000-0 -60158-1 0  9997,2 56811  69.9999  28.2416 0003214 269.5090 149.1855 15.12213385  6019,6907.588,95.225,531.674,527.233,0.0
56811.0,STARLINK-6063,PAYLOAD,2024-02-21 22:00:00,15.11540407,0.0003194,70.0003,27.3835,265.2,167.2079,-0.057281,-0.00901982,0.0,0 STARLINK-6063,1 56811U 23078AW  24052.91667824 -.00901982  00000-0 -57281-1 0  9992,2 56811  70.0003  27.3835 0003194 265.2000 167.2079 15.11540407 42065,6909.639,95.267,533.711,529.297,0.0
56811.0,STARLINK-6063,PAYLOAD,2024-02-22 14:00:01,15.10254189,0.0003131,70.0001,25.6694,269.213,188.2819,-0.063249,-0.00956542,0.0,0 STARLINK-6063,1 56811U 23078AW  24053.58334491 -.00956542  00000-0 -63249-1 0  9990,2 56811  70.0001  25.6694 0003131 269.2130 188.2819 15.10254189 42160,6913.561,95.348,537.591,533.262,0.0
56811.0,STARLINK-6063,PAYLOAD,2024-02-22 22:00:00,15.09587419,0.0003131,70.0005,24.8138,264.6842,204.1746,-0.060884,-0.00907752,0.0,0 STARLINK-6063,1 56811U 23078AW  24053.91667824 -.00907752  00000-0 -60884-1 0  9997,2 56811  70.0005  24.8138 0003131 264.6842 204.1746 15.09587419  5942,6915.597,95.39,539.627,535.296,0.0
56811.0,STARLINK-6063,PAYLOAD,2024-02-23 06:00:00,15.08922664,0.000317,70.0006,23.959,270.951,208.5055,-0.061538,-0.0090137,0.0,0 STARLINK-6063,1 56811U 23078AW  24054.25001157 -.00901370  00000-0 -61538-1 0  9993,2 56811  70.0006  23.9590 0003170 270.9510 208.5055 15.08922664 42261,6917.628,95.432,541.686,537.3,0.0
56811.0,STARLINK-6063,PAYLOAD,2024-02-23 14:00:01,15.08294754,0.000311,70.0004,23.105,268.1687,221.0855,-0.066426,-0.00952183,0.0,0 STARLINK-6063,1 56811U 23078AW  24054.58334491 -.00952183  00000-0 -66426-1 0  9998,2 56811  70.0004  23.1050 0003110 268.1687 221.0855 15.08294754  6046,6919.547,95.472,543.564,539.261,0.0
56811.0,STARLINK-6063,PAYLOAD,2024-02-23 22:00:01,15.07634074,0.0003091,70.0008,22.2519,263.2814,235.0512,-0.064682,-0.00913607,0.0,0 STARLINK-6063,1 56811U 23078AW  24054.91668981 -.00913607  00000-0 -64682-1 0  9999,2 56811  70.0008  22.2519 0003091 263.2814 235.0512 15.07634074 42368,6921.569,95.514,545.573,541.294,0.0
56811.0,STARLINK-6063,PAYLOAD,2024-02-24 14:00:01,15.06334952,0.0003097,70.0007,20.5482,266.4965,247.5386,-0.069735,-0.00947976,0.0,0 STARLINK-6063,1 56811U 23078AW  24055.58335648 -.00947976  00000-0 -69735-1 0  9994,2 56811  70.0007  20.5482 0003097 266.4965 247.5386 15.06334952 42475,6925.548,95.596,549.558,545.268,0.0
56811.0,STARLINK-6063,PAYLOAD,2024-02-24 22:00:00,15.05681143,0.0003086,70.0011,19.6978,261.8673,258.773,-0.068692,-0.00919663,0.0,0 STARLINK-6063,1 56811U 23078AW  24055.91667824 -.00919663  00000-0 -68692-1 0  9998,2 56811  70.0011  19.6978 0003086 261.8673 258.7730 15.05681143  5924,6927.553,95.638,551.555,547.28,0.0
56811.0,STARLINK-6063,PAYLOAD,2024-02-25 06:00:00,15.05005393,0.0003108,70.0011,18.8481,268.5011,258.047,-0.067902,-0.00894608,0.0,0 STARLINK-6063,1 56811U 23078AW  24056.25001157 -.00894608  00000-0 -67902-1 0  9991,2 56811  70.0011  18.8481 0003108 268.5011 258.0470 15.05005393 42572,6929.626,95.681,553.645,549.337,0.0
56811.0,STARLINK-6063,PAYLOAD,2024-02-25 14:00:01,15.0437547,0.0003073,70.001,17.9993,264.8796,266.7727,-0.073076,-0.00942682,0.0,0 STARLINK-6063,1 56811U 23078AW  24056.58334491 -.00942682  00000-0 -73076-1 0  9992,2 56811  70.0010  17.9993 0003073 264.8796 266.7727 15.04375470  5934,6931.56,95.721,555.555,551.295,0.0
56811.0,STARLINK-6063,PAYLOAD,2024-02-25 22:00:00,15.03728405,0.0003092,70.0014,17.1515,260.6894,275.2808,-0.072971,-0.00926455,0.0,0 STARLINK-6063,1 56811U 23078AW  24056.91667824 -.00926455  00000-0 -72971-1 0  9991,2 56811  70.0014  17.1515 0003092 260.6894 275.2808 15.03728405 42670,6933.549,95.762,557.558,553.27,0.0
56811.0,STARLINK-6063,PAYLOAD,2024-02-26 14:00:01,15.02415695,0.0003107,70.0013,15.4582,263.9794,278.3112,-0.076608,-0.0094899,0.0,0 STARLINK-6063,1 56811U 23078AW  24057.58334491 -.00948990  00000-0 -76608-1 0  9995,2 56811  70.0013  15.4582 0003107 263.9794 278.3112 15.02415695  5917,6937.587,95.846,561.607,557.296,0.0
56811.0,STARLINK-6063,PAYLOAD,2024-02-26 22:00:01,15.01775386,0.0003112,70.0017,14.6129,260.1401,284.182,-0.07748,-0.00943991,0.0,0 STARLINK-6063,1 56811U 23078AW  24057.91668981 -.00943991  00000-0 -77480-1 0  9991,2 56811  70.0017  14.6129 0003112 260.1401 284.1820 15.01775386 42826,6939.559,95.887,563.583,559.264,0.0
56811.0,STARLINK-6063,PAYLOAD,2024-02-27 14:00:01,15.00455295,0.000303,70.0016,12.9247,263.4176,282.4711,-0.080174,-0.0094342,0.0,0 STARLINK-6063,1 56811U 23078AW  24058.58334491 -.00943420  00000-0 -80174-1 0  9992,2 56811  70.0016  12.9247 0003030 263.4176 282.4711 15.00455295  5968,6943.628,95.971,567.597,563.389,0.0
56811.0,STARLINK-6063,PAYLOAD,2024-02-27 22:00:00,14.99671875,0.0003055,70.0019,12.0821,260.6673,284.8681,-0.043229,-0.00502936,0.0,0 STARLINK-6063,1 56811U 23078AW  24058.91667824 -.00502936  00000-0 -43229-1 0  9991,2 56811  70.0019  12.0821 0003055 260.6673 284.8681 14.99671875  5916,6946.046,96.021,570.033,565.789,0.0
56811.0,STARLINK-6063,PAYLOAD,2024-02-28 06:00:00,14.99278326,0.0002919,70.0018,11.2402,267.4607,276.9452,0.0031862,0.00039087,0.0,0 STARLINK-6063,1 56811U 23078AW  24059.25001157  .00039087  00000-0  31862-2 0  9991,2 56811  70.0018  11.2402 0002919 267.4607 276.9452 14.99278326 43027,6947.262,96.046,571.155,567.099,0.0
56811.0,STARLINK-6063,PAYLOAD,2024-02-28 14:00:01,14.9929803,0.0002928,70.0017,10.3983,264.2888,278.8246,-0.0013032,-0.00016002,0.0,0 STARLINK-6063,1 56811U 23078AW  24059.58335648 -.00016002  00000-0 -13032-2 0  9995,2 56811  70.0017  10.3983 0002928 264.2888 278.8246 14.99298030  5952,6947.201,96.045,571.1,567.032,0.0
56811.0,STARLINK-6063,PAYLOAD,2024-02-28 22:00:00,14.99352699,0.0002862,70.002,9.557,261.502,280.1837,-0.0020139,-0.00024682,0.0,0 STARLINK-6063,1 56811U 23078AW  24059.91667824 -.00024682  00000-0 -20139-2 0  9995,2 56811  70.0020   9.5570 0002862 261.5020 280.1837 14.99352699  5979,6947.032,96.041,570.885,566.909,0.0
56811.0,STARLINK-6063,PAYLOAD,2024-02-29 06:00:00,14.99313001,0.000279,70.0018,8.7152,271.255,269.1371,-0.0034368,-0.00041909,0.0,0 STARLINK-6063,1 56811U 23078AW  24060.25001157 -.00041909  00000-0 -34368-2 0  9995,2 56811  70.0018   8.7152 0002790 271.2550 269.1371 14.99313001 43177,6947.155,96.044,570.958,567.081,0.0
56811.0,STARLINK-6063,PAYLOAD,2024-02-29 14:00:01,14.99272657,0.0002722,70.0016,7.8736,268.9601,270.0795,0.00039606,4.752e-05,0.0,0 STARLINK-6063,1 56811U 23078AW  24060.58334491  .00004752  00000-0  39606-3 0  9995,2 56811  70.0016   7.8736 0002722 268.9601 270.0795 14.99272657  5954,6947.279,96.047,571.035,567.253,0.0
